STARLINK-36862          
1 68003U 26039T   26066.25001157 -.01635024  75878-3 -42820-2 0  9997
2 68003  42.9973  69.8883 0001530 271.8406 262.2615 15.94063137  2489
STARLINK-36888          
1 68004U 26039U   26066.25001157 -.01648698  76738-3 -44136-2 0  9997
2 68004  42.9974  69.9073 0001475 274.5871 252.1933 15.93652780  2485
STARLINK-36910          
1 68005U 26039V   26066.25001157 -.01647834  76874-3 -43473-2 0  9993
2 68005  42.9972  69.8940 0001511 274.6385 257.2299 15.93927450  2488
STARLINK-36889          
1 68006U 26039W   26066.25001157 -.01634909  75974-3 -42500-2 0  9993
2 68006  42.9972  69.8819 0001508 276.1544 260.2853 15.94202721  2482
STARLINK-36592          
1 68007U 26039X   26066.25001157 -.01652126  77566-3 -42630-2 0  9998
2 68007  42.9971  69.8767 0001490 274.8185 263.9527 15.94344154  2485
STARLINK-36911          
1 68008U 26039Y   26066.25001157 -.01623033  75162-3 -41587-2 0  9994
2 68008  42.9973  69.8704 0001595 271.7619 269.4535 15.94470330  2489
STARLINK-36956          
1 68009U 26039Z   26066.25001157 -.01624667  75405-3 -41325-2 0  9999
2 68009  42.9971  69.8644 0001440 270.0292 273.5232 15.94607705  2487
STARLINK-36953          
1 68010U 26039AA  26066.25001157 -.01625839  75708-3 -40768-2 0  9999
2 68010  42.9970  69.8513 0001529 271.0954 277.5187 15.94873726  2488
STARLINK-36991          
1 68011U 26039AB  26066.25001157 -.01619221  75239-3 -40320-2 0  9991
2 68011  42.9970  69.8451 0001492 270.6801 280.4193 15.95001873  2482
STARLINK-36936          
1 68012U 26039AC  26066.25001157 -.01631760  76527-3 -40046-2 0  9990
2 68012  42.9970  69.8323 0001471 264.8004 291.1718 15.95273023  2488
STARLINK-36967          
1 68013U 26039AD  26066.25001157 -.01620557  75153-3 -40930-2 0  9999
2 68013  42.9969  69.8577 0001511 270.7299 275.2823 15.94738799  2480
STARLINK-36985          
1 68014U 26039AE  26066.25001157 -.01626834  75999-3 -40210-2 0  9993
2 68014  42.9970  69.8392 0001462 273.4741 279.9819 15.95140979  2489
STARLINK-36335          
1 68015U 26040A   26066.25001157 -.00750801  21614-3 -83774-3 0  9995
2 68015  97.2833  14.1780 0000956 100.4908 309.6894 16.09481260  1981
STARLINK-36923          
1 68016U 26040B   26066.25001157 -.00768237  22628-3 -84392-3 0  9991
2 68016  97.2833  14.1794 0000947 102.0504 311.0805 16.09726084  2039
STARLINK-36568          
1 68017U 26040C   26066.25001157 -.00769753  22743-3 -83976-3 0  9991
2 68017  97.2832  14.1801 0000931 104.1089 310.3848 16.09833334  2038
STARLINK-36930          
1 68018U 26040D   26066.25001157 -.00761081  22202-3 -84266-3 0  9991
2 68018  97.2832  14.1789 0000829 113.8929 297.7584 16.09603419  2034
